#cP2019  6  2 18  0  0.00000000     096 ORBIT IGS14 HLM  IGS 
## 2056  64800.00000000   900.00000000 58636 0.7500000000000
+   31   G01G02G03G05G06G07G08G09G10G11G12G13G14G15G16G17G18
+        G19G20G21G22G23G24G25G26G27G28G29G30G31G32  0  0  0
+          0  0  0  0  0  0  0  0  0  0  0  0  0  0  0  0  0
+          0  0  0  0  0  0  0  0  0  0  0  0  0  0  0  0  0
+          0  0  0  0  0  0  0  0  0  0  0  0  0  0  0  0  0
++         4  6  3  3  4  4  3  4  3  3  3  3  5  3  4  3  4
++         3  4  3  4  4  5  4  4  3  3  4  3  4  4  0  0  0
++         0  0  0  0  0  0  0  0  0  0  0  0  0  0  0  0  0
++         0  0  0  0  0  0  0  0  0  0  0  0  0  0  0  0  0
++         0  0  0  0  0  0  0  0  0  0  0  0  0  0  0  0  0
%c G  cc GPS ccc cccc cccc cccc cccc ccccc ccccc ccccc ccccc
%c cc cc ccc ccc cccc cccc cccc cccc ccccc ccccc ccccc ccccc
%f  1.2500000  1.025000000  0.00000000000  0.000000000000000
%f  0.0000000  0.000000000  0.00000000000  0.000000000000000
%i    0    0    0    0      0      0      0      0         0
%i    0    0    0    0      0      0      0      0         0
/* ULTRA ORBIT COMBINATION 20561_18 (58637.750) FROM:       
/* cou emu esu gfu ngu siu usu whu                          
/* REFERENCED TO emu CLOCK AND TO WEIGHTED MEAN POLE:       
/* PCV:IGS14_2045 OL/AL:FES2004  NONE     Y  ORB:CMB CLK:CMB
*  2019  6  3  6 45  0.00000000
PG01 -14130.426797   4676.357801  21793.626272    -31.660461  8  9  2 217       
PG02  14116.675928  17944.981074 -13091.189814   -228.404325 17 21 19           
PG03 -22385.435247  11117.072654   8817.671246    186.692327  5  7  4 190       
PG05  15327.134119   6312.704491 -20912.151549      0.701825  4  9  8 209       
PG06   6540.564071  25605.085750  -2405.031770    188.392724  6 13  5 202       
PG07  -8326.332785  18883.724209 -16183.921615    -36.907907  3  8  8 228       
PG08 -25690.731168  -4684.714791   5456.536396   -145.971069  3  7  7 216       
PG09 -12203.269325  11431.256461 -20676.894142    399.142064  5  6  6 210       
PG10   5555.976241 -19995.871455  16524.248408     27.703139  7  6  1 218       
PG11 -17689.505734   1082.532955  19187.239041   -592.980131  3  1  3 169       
PG12  22799.076738  -8637.707685  10111.152031    236.652934  2 10  6 214       
PG13  23074.264711  13058.345811  -2083.075036    -60.805386  5 10  8 220       
PG14 -13337.556603 -17568.025823  15252.756033    -77.744629  8  9  5 226       
PG15  25995.851853   1977.385842   5795.801515   -309.315587  6  9  6 217       
PG16 -14966.903730  -6635.025433 -21194.447713    -45.056242  5  8  6 226       
PG17   4905.382347  16742.819371  20460.243099     65.357956  5  7  7 139       
PG18 -15928.609441  -5392.571134  20098.148242     58.774658  4  7  6 186       
PG19  12342.008952  17283.124988  15599.684838   -311.245879  2  7  7 153       
PG20  12297.767245 -22085.720725   7791.061891    525.148335  4 10  6 134       
PG21   2943.950719 -23253.181276 -11843.145463   -180.440879  7  5  6  85       
PG22 -21321.136881   5170.573234  15150.092204   -711.169753  7 10  5 201       
PG23 -22808.023281   2678.775004 -13342.219968   -183.448671  6  6  6 223       
PG24  15672.427934  -1387.082996  21261.715204    -66.958990  6 12    204       
PG25  19465.942379 -17831.100584  -1338.640003   -762.334507  6  6  7 208       
PG26  -6305.562789 -14687.637633 -21207.773500    217.503158  6 10  6 229       
PG27 -22924.801835 -12345.813973  -6110.618034   -147.997026  4  9  8 216       
PG28  -7579.968333  19436.335143  17100.452639    767.679196  3  6  8 161       
PG29  16482.470765  -7107.331052 -19615.650284    185.884035  3  9  4 233       
PG30  -1818.721602  25317.980852  -7445.784470   -116.654217  5  8  8 228       
PG31  -6910.606696 -25057.899662  -4136.967003     33.733140  5  8  8 129       
PG32  -7278.259105 -16872.181444  19280.175377    -59.799003  7  6  4 219       
*  2019  6  3  7  0  0.00000000
PG01 -14681.553234   2203.250292  21847.842555    -31.668910  7  9  3 214       
PG02  14296.338347  19397.246504 -10733.506074   -228.412657 17 20 19           
PG03 -21683.437562  10163.575110  11354.859657    186.691422  5  8  4 166       
PG05  13635.112331   8016.709903 -21477.003693      0.701698  4  8  8 211       
PG06   6355.620387  25764.286938    479.770902    188.383388  6 13  6 200       
PG07  -8927.087381  16949.718574 -17928.268696    -36.914706  3  8  8 226       
PG08 -26068.312837  -5015.819018   2643.758476   -145.972070  4  7  7 216       
PG09 -14380.438368  10675.864158 -19654.997553    399.135404  4  6  6 205       
PG10   6984.123030 -21061.536959  14511.800689     27.692797  7  6  1 221       
PG11 -18925.096536   -811.452080  17994.395923   -592.972291  3  2  3 146       
PG12  21872.852666  -7663.403933  12600.028348    236.650000  2 10  5 216       
PG13  22627.124908  13105.159655  -4912.970994    -60.803894  6 11  8 223       
PG14 -11615.692572 -17039.044206  17165.109816    -77.742974  7  8  6 228       
PG15  26452.797908   2396.335487   3091.130053   -309.313658  6 10  7 221       
PG16 -13072.256044  -8127.863313 -21884.507590    -45.059288  6  9  6 225       
PG17   2725.884946  15983.484401  21461.858915     65.363847  5  7  7  88       
PG18 -16436.331279  -7669.912806  18956.122640     58.776999  4  7  6 177       
PG19  10499.900818  16645.157153  17496.810876   -311.241835  2  7  7 173       
PG20  13046.595613 -22441.985037   5121.178881    525.148333  3 10  5 132       
PG21   3613.157599 -21781.956545 -14079.758984   -180.433973  7  6  7 111       
PG22 -20244.685698   3694.610225  16983.626007   -711.175096  8 10  5 200       
PG23 -24117.606550   2050.774633 -11044.851680   -183.447020  6  5  6 225       
PG24  16291.438792    979.599249  20847.479062    -66.959710  5 12  4 205       
PG25  19607.454894 -17623.699951   1550.594416   -762.337774  6  6  7 203       
PG26  -4533.574280 -16288.032661 -20462.645570    217.511760  6 10  7 228       
PG27 -22079.966380 -12259.294064  -8814.178481   -148.005905  5  9  8 215       
PG28  -9027.699164  20399.139002  15094.143417    767.679065  3  6  8 160       
PG29  18448.235875  -6243.030438 -18098.897848    185.875359  2  8  4 234       
PG30  -2289.591213  24375.133666 -10026.774428   -116.660655  5  6  7 225       
PG31  -6686.351601 -25420.605145  -1278.112907     33.730916  6  8  7  48       
PG32  -5089.459501 -16307.615993  20426.605305    -59.784291  7  6  5 220       
*  2019  6  3  7 15  0.00000000
PG01 -15360.408007   -218.152588  21519.901811    -31.677309  7  9  3 209       
PG02  14458.514177  20569.371887  -8187.214834   -228.420936 18 20 19           
PG03 -20839.383224   8975.922071  13695.359025    186.690490  6  8  3 174       
PG05  12001.470514   9837.396963 -21676.957378      0.701466  5  8  8 208       
PG06   6089.172405  25619.043978   3356.305381    188.374107  6 13  7 210       
PG07  -9670.248089  14874.035488 -19352.620951    -36.921572  3  8  8 228       
PG08 -26152.055774  -5252.882381   -213.925480   -145.973465  4  7  7 223       
PG09 -16462.503410  10063.041888 -18296.063374    399.128707  4  6  5 212       
PG10   8187.898771 -22025.965796  12248.298753     27.682494  7  6    217       
PG11 -20137.242542  -2533.379574  16476.283109   -592.964799  3  2  4 160       
PG12  20799.477092  -6455.890923  14867.588727    236.646926  2 10  5 211       
PG13  21889.605328  13061.541590  -7658.747437    -60.802278  6 10  8 220       
PG14  -9681.995783 -16538.824849  18790.905145    -77.741419  7  8  7 228       
PG15  26627.185090   2743.655973    334.293750   -309.311469  7 10  7 218       
PG16 -11219.270206  -9764.979180 -22206.187168    -45.061809  6  9  6 228       
PG17    419.551845  15322.608818  22107.899095     65.369754  4  7  6 113       
PG18 -17008.819364  -9772.198603  17475.674458     58.780076  4  7  7 183       
PG19   8435.753499  16041.293450  19085.015244   -311.237575  3  7  6 176       
PG20  13591.092649 -22588.623936   2362.131625    525.148598  2 10  5 119       
PG21   4439.402057 -20111.207552 -16063.531877   -180.427265  7  7  7 100       
PG22 -19117.876266   2026.929071  18528.885018   -711.180342  8 10  5 207       
PG23 -25191.480147   1553.053678  -8558.326953   -183.445795  6  6  7 228       
PG24  17001.709031   3246.126644  20071.100093    -66.959406  2 12  7 202       
PG25  19531.901826 -17187.533787   4412.659312   -762.340945  6  7  7 210       
PG26  -2913.997976 -17900.270474 -19364.769376    217.520501  6 10  7 111       
PG27 -20944.671974 -12148.839454 -11369.221980   -148.014762  5 10  9 218       
PG28 -10243.381105  21287.678298  12838.750187    767.679074  2  6  8 171       
PG29  20278.976031  -5547.875216 -16271.646033    185.867217  2  8  4 231       
PG30  -2870.822506  23181.305901 -12433.158053   -116.667176  5  4  7 228       
PG31  -6399.885083 -25475.906034   1603.350660     33.728291  6  8  7 127       
PG32  -2767.116193 -15830.903341  21224.244742    -59.769545  6  6  5 218       
EOF
